#dP2022  7  2  0  0  0.00000000      97 __u+U IGS14 FIT  IAC
## 2216 518400.00000000   900.00000000 59762 0.0000000000000
+  113   C06C08C10C11C12C13C14C16C19C20C21C22C23C24C25C26C27
+        C28C29C30C32C33C34C35C36C37C38C40C41C42C43C44C45C46
+        E01E02E03E04E05E07E08E09E10E11E12E13E14E15E18E19E21
+        E24E25E26E27E30E31E33E34E36G01G02G03G04G05G06G07G08
+        G09G10G11G12G13G14G15G16G17G18G19G20G21G22G23G24G25
+        G26G27G28G29G30G31G32J02J03R01R02R03R04R05R07R08R09
+        R11R12R13R14R15R17R18R19R20R21R24  0  0  0  0  0  0
++         7  7  7  7  7  7  6  7  5  5  6  6  6  6  6  6  5
++         6  5  5  5  6  6  6  6  6  7  7  6  6  6  6  6  6
++         4  4  5  4  4  4  5  4  5  4  4  4  4  5  5  4  4
++         4  4  4  4  4  4  4  4  4  3  4  3  3  4  4  3  5
++         3  3  3  3  3  3  3  4  3  3  4  4  3  3  3  3  3
++         3  3  4  4  3  4  3  9  9  6  6  6  6  6  6  6  6
++         6  6  7  6  6  6  6  7  7  6  6  0  0  0  0  0  0
%c M  cc GPS ccc cccc cccc cccc cccc ccccc ccccc ccccc ccccc
%c cc cc ccc ccc cccc cccc cccc cccc ccccc ccccc ccccc ccccc
%f  1.2500000  1.025000000  0.00000000000  0.000000000000000
%f  0.0000000  0.000000000  0.00000000000  0.000000000000000
%i    0    0    0    0      0      0      0      0         0
%i    0    0    0    0      0      0      0      0         0
/* INFORMATION & ANALYSIS CENTER (IAC)            FINAL DATA
/* S/V CLOCKS ARE ALIGNED TO GNSS TIME                      
/* G:C1WC2W R:C1PC2P E:C1XC5X C:C2IC6I J:C1CC2S             
/* PCV:IGS14_2215 OL/AL:FES2004  NONE     YN ORB:CoN CLK:CoN
*  2022 07 02  0 45  0.00000000
PC06  -1005.448196  35678.631034 -22231.265845    306.029480
PC08 -16397.978626  37238.112535 -11366.991755    386.986204
PC10  -2946.319900  27031.987520  32457.489677    122.044864
PC11  12133.747998  -9601.893708 -23163.464047    448.971147
PC12  18906.393014   9456.670563 -18197.907879   -586.693533
PC13 -11949.687789  37574.197439 -15186.588876     11.981855
PC14  22818.007984  -9159.407640  13278.023850    523.934255
PC16  -2461.464923  34127.542211 -24297.963521    142.007995
PC19 -14356.702883  13512.606770 -19714.313549   -120.407455
PC20 -26811.004781   4327.175640  -6324.592158   -964.468734
PC21  23971.939780   8117.655343 -11771.786521   -595.223335
PC22   6961.690115  15299.553457 -22280.512811   -963.065313
PC23   1124.812648 -23425.059143 -15113.726153   -939.785501
PC24  19838.875167  -9195.044531  17324.610527   -968.498242
PC25  13908.406925 -24172.535584    653.152657   -713.695409
PC26  13902.120786   8460.175727  22662.094841    715.492454
PC27 -18658.786466 -17340.690685  11386.283245    747.732243
PC28  -9805.368875 -25530.057425  -5539.785138     85.122731
PC29  -4723.339114  18915.579138  19954.800459    576.023929
PC30 -17277.382453    849.721708  21890.229964    500.601186
PC32 -23955.302198  -8003.372946  11864.899271   -973.632167
PC33  14402.067187 -13603.347695  19668.527005    -66.365899
PC34  16846.785131  -2015.932701 -22167.605435   -368.216925
PC35   9871.821859  25233.539716   6595.830883    346.601842
PC36 -14753.023852  23659.327430  -1139.286077   -971.781635
PC37 -12983.389935  -9922.134172 -22599.281584   -912.778497
PC38 -20237.326145  36941.196294  -3248.076460      7.157615
PC40 -16905.788241  19854.138034  33080.845781    282.048560
PC41  -6393.687286 -15419.851559  22412.895735    -46.616549
PC42  27153.536136  -3741.446790   5355.292895   -956.062149
PC43   5456.581420 -18445.767333 -20237.108366      0.530661
PC44  19296.863337  16733.091963 -11223.095447    710.544044
PC45   -916.294465  23256.119454  15418.246103    798.109250
PC46 -19855.456825  10861.876292 -16338.960300   -409.358112
PE01  -2368.602152 -17342.419260 -23865.641505   -507.065270
PE02   2549.484414  17271.060026  23906.570035    309.276349
PE03  13990.171687  20835.689766 -15705.180728   -574.667329
PE04 -26147.964057 -13776.516366  -1583.857918  -1062.300724
PE05  -6675.211221  15784.053423 -24128.310985   -166.890896
PE07  23140.634317  -1639.479453  18402.402559   -683.684250
PE08  26254.951477  13569.035239   1804.515581   -556.374321
PE09 -23044.030609   1644.946030 -18488.448852   -573.040025
PE10 -16016.387277  -2223.993994  24777.685247   -523.483775
PE11 -15143.380844   9970.857337  23376.932338   3157.170311
PE12 -14412.668192 -13443.826235  22079.321615    -40.183904
PE13  15209.661914  -9206.010713 -23671.424770    429.594984
PE14  21931.208028  19986.456947   1760.804980  -1791.346881
PE15  14341.994800  13554.151399 -22063.578195    735.884337
PE18 -10669.329421 -22062.556471 -11872.146092  -1263.353335
PE19 -11620.388543 -20835.289245  17531.699417  -5212.169316
PE21  16191.700061 -20377.846696 -14097.146031   -743.470395
PE24 -26929.754882  11042.157268  -5448.643535   -701.785258
PE25 -16422.757228  20344.492186  13885.589393   -579.592444
PE26   6760.089703 -26838.564745 -10496.898468  -1328.232721
PE27  26733.730513 -11925.966364   4380.107110   -335.120797
PE30  20832.382938   4328.631111  20569.163218   -638.319220
PE31 -21451.324582  -3448.968768 -20091.286017   -499.213622
PE33  -5015.253727 -28208.621341   7446.146478   -455.097842
PE34   5197.112054  28126.407685  -7650.992198   -524.980188
PE36  -7141.145536  26375.803769  11366.686422   -396.177056
PG01 -13076.569578  15229.392411  16901.777008    329.776591
PG02  13978.022728   7760.407578 -20531.253422   -652.047522
PG03 -22901.621709  12844.905819  -3668.260580   -295.504291
PG04 -15959.876088   5649.985122 -20475.812568   -150.814513
PG05  24263.304581  -3838.916154 -10458.150801    -87.596061
PG06   6719.135304  21607.795864 -13785.244263    367.145052
PG07  -5424.445411  25414.857899  -3570.611280    320.595956
PG08 -21130.292990   -960.649505  16233.106985    -74.458240
PG09  -6038.534929  14403.478996 -21549.462057   -323.169718
PG10  -2480.217694 -15107.222745  21820.753809   -476.417146
PG11  13176.827266   9686.042464 -20936.361626    -12.010479
PG12  24694.198970  -9596.018935   -968.150260   -239.888472
PG13  21818.267356  11440.467862  10002.073509    340.403045
PG14    403.814468  16037.176368  21155.175391   -112.019358
PG15  21401.580034  -1393.082055  15441.524455    -48.772562
PG16 -22491.523166  -2864.967093 -14470.814702   -512.774836
PG17   9498.057424  20464.551457  14402.365328    631.856013
PG18   6070.801720 -25464.455238  -4108.974285    125.809998
PG19  16387.121660  20164.186642   5807.400584    178.155541
PG20  18031.267326   4594.749206 -18863.065600    506.707498
PG21 -15323.460615   4694.258164  21712.757963    161.238187
PG22 -17849.832486 -19410.956224   4303.945243    285.241754
PG23   9183.752583 -17674.132877  17505.799384    -30.948422
PG24  14263.003158 -11380.900226  18855.757598    207.521240
PG25  16072.075187 -17000.468130 -12599.899599    344.178504
PG26 -14955.481140  -8995.831813 -20186.817867    215.772098
PG27 -23121.674146 -12267.846969   5390.900379    219.249845
PG28   9620.634125  12588.996470  21795.566811    329.209327
PG29   6377.824825 -13782.447890 -21834.738849   -529.548065
PG30   1312.486591  25713.476084   6045.388377   -532.961269
PG31  -8639.499712 -19489.846598 -15674.471433   -184.074341
PG32 -13027.839532 -19886.084822  12183.985615   -165.412935
PJ02 -30702.054353  28414.429531  10025.512907     -1.214410
PJ03 -23971.757793  26748.456213  27112.454894     -3.226059
PR01 -24163.958550    -12.369235  -8144.690944     10.807079
PR02 -10308.911718   8387.028785 -21740.555698    522.930491
PR03   8769.880628  11699.346049 -20840.624380     59.459201
PR04  22577.949915   8366.533896  -8379.508259    149.144295
PR05  23960.750243    570.431040   8713.947888     95.546531
PR07  -9588.217390 -11734.798283  20572.799061     37.236069
PR08 -22648.833644  -8333.298088   8357.407029    -65.983529
PR09  14556.094861 -20647.887986  -3797.672227     63.532015
PR11 -10156.294417  -4748.053469 -22896.739624     34.550510
PR12 -18296.840045  11631.447581 -13419.661567     19.123859
PR13 -15289.416015  20264.188821   2474.589168    -24.177417
PR14  -2663.555646  17192.278989  18661.884947     25.030702
PR15  10831.327753   4122.981263  22747.637582     94.943410
PR17   7197.666204  24366.370744   2508.687465    539.826135
PR18  12401.534136  17492.253481 -13771.499934    122.164062
PR19  11433.298798   3061.250095 -22604.228206   -194.752952
PR20   3318.895575 -17266.541183 -18497.441537    -73.749429
PR21  -7760.840761 -24264.288022   -967.778948   -314.020302
PR24  -2857.405303  17956.981511  17907.111005    101.469680
EOF
